[
  {
    "OBJECT_NAME": "STARLINK-34318",
    "OBJECT_ID": "25117V",
    "EPOCH": "2025-11-11T03:18:46.832256",
    "MEAN_MOTION": 15.3021756,
    "ECCENTRICITY": 8.33e-05,
    "INCLINATION": 53.157,
    "RA_OF_ASC_NODE": 230.354,
    "ARG_OF_PERICENTER": 80.1483,
    "MEAN_ANOMALY": 279.9612,
    "EPHEMERIS_TYPE": 0,
    "CLASSIFICATION_TYPE": "U",
    "NORAD_CAT_ID": 64222,
    "ELEMENT_SET_NO": 999,
    "REV_AT_EPOCH": 2637,
    "BSTAR": 0.0021028,
    "MEAN_MOTION_DOT": 0.0006248,
    "MEAN_MOTION_DDOT": 0.0,
    "TLE_LINE1": "1 64222U 25117V   25315.13804204  .00062480  00000+0  21028-2 0  9994",
    "TLE_LINE2": "2 64222  53.1570 230.3540 0000833  80.1483 279.9612 15.30217560 26378",
    "COMMENT": "Grouped by shell and plane from TLE"
  },
  {
    "OBJECT_NAME": "STARLINK-34337",
    "OBJECT_ID": "25117W",
    "EPOCH": "2025-11-11T05:01:57.077760",
    "MEAN_MOTION": 15.30222998,
    "ECCENTRICITY": 0.0001289,
    "INCLINATION": 53.1571,
    "RA_OF_ASC_NODE": 230.0929,
    "ARG_OF_PERICENTER": 90.3252,
    "MEAN_ANOMALY": 269.7896,
    "EPHEMERIS_TYPE": 0,
    "CLASSIFICATION_TYPE": "U",
    "NORAD_CAT_ID": 64223,
    "ELEMENT_SET_NO": 999,
    "REV_AT_EPOCH": 2638,
    "BSTAR": 0.001797,
    "MEAN_MOTION_DOT": 0.00053283,
    "MEAN_MOTION_DDOT": 0.0,
    "TLE_LINE1": "1 64223U 25117W   25315.20968840  .00053283  00000+0  17970-2 0  9992",
    "TLE_LINE2": "2 64223  53.1571 230.0929 0001289  90.3252 269.7896 15.30222998 26384",
    "COMMENT": "Grouped by shell and plane from TLE"
  },
  {
    "OBJECT_NAME": "STARLINK-34289",
    "OBJECT_ID": "25117Y",
    "EPOCH": "2025-11-11T04:43:42.837312",
    "MEAN_MOTION": 15.30228508,
    "ECCENTRICITY": 0.0001071,
    "INCLINATION": 53.1554,
    "RA_OF_ASC_NODE": 230.0087,
    "ARG_OF_PERICENTER": 67.517,
    "MEAN_ANOMALY": 292.5944,
    "EPHEMERIS_TYPE": 0,
    "CLASSIFICATION_TYPE": "U",
    "NORAD_CAT_ID": 64225,
    "ELEMENT_SET_NO": 999,
    "REV_AT_EPOCH": 2641,
    "BSTAR": 0.0014402000000000002,
    "MEAN_MOTION_DOT": 0.00042577,
    "MEAN_MOTION_DDOT": 0.0,
    "TLE_LINE1": "1 64225U 25117Y   25315.19702358  .00042577  00000+0  14402-2 0  9993",
    "TLE_LINE2": "2 64225  53.1554 230.0087 0001071  67.5170 292.5944 15.30228508 26411",
    "COMMENT": "Grouped by shell and plane from TLE"
  },
  {
    "OBJECT_NAME": "STARLINK-34347",
    "OBJECT_ID": "25117Z",
    "EPOCH": "2025-11-11T04:57:23.616576",
    "MEAN_MOTION": 15.30232088,
    "ECCENTRICITY": 0.0001515,
    "INCLINATION": 53.1565,
    "RA_OF_ASC_NODE": 230.0732,
    "ARG_OF_PERICENTER": 41.7212,
    "MEAN_ANOMALY": 318.3904,
    "EPHEMERIS_TYPE": 0,
    "CLASSIFICATION_TYPE": "U",
    "NORAD_CAT_ID": 64226,
    "ELEMENT_SET_NO": 999,
    "REV_AT_EPOCH": 2638,
    "BSTAR": 0.0013276,
    "MEAN_MOTION_DOT": 0.00039209,
    "MEAN_MOTION_DDOT": 0.0,
    "TLE_LINE1": "1 64226U 25117Z   25315.20652334  .00039209  00000+0  13276-2 0  9990",
    "TLE_LINE2": "2 64226  53.1565 230.0732 0001515  41.7212 318.3904 15.30232088 26382",
    "COMMENT": "Grouped by shell and plane from TLE"
  },
  {
    "OBJECT_NAME": "STARLINK-34241",
    "OBJECT_ID": "25117AC",
    "EPOCH": "2025-11-11T03:40:04.358208",
    "MEAN_MOTION": 15.30214255,
    "ECCENTRICITY": 0.0001635,
    "INCLINATION": 53.1593,
    "RA_OF_ASC_NODE": 230.5114,
    "ARG_OF_PERICENTER": 62.0543,
    "MEAN_ANOMALY": 298.0623,
    "EPHEMERIS_TYPE": 0,
    "CLASSIFICATION_TYPE": "U",
    "NORAD_CAT_ID": 64229,
    "ELEMENT_SET_NO": 999,
    "REV_AT_EPOCH": 2640,
    "BSTAR": 0.0015848000000000001,
    "MEAN_MOTION_DOT": 0.00046895,
    "MEAN_MOTION_DDOT": 0.0,
    "TLE_LINE1": "1 64229U 25117AC  25315.15282822  .00046895  00000+0  15848-2 0  9994",
    "TLE_LINE2": "2 64229  53.1593 230.5114 0001635  62.0543 298.0623 15.30214255 26402",
    "COMMENT": "Grouped by shell and plane from TLE"
  },
  {
    "OBJECT_NAME": "STARLINK-35496",
    "OBJECT_ID": "25237A",
    "EPOCH": "2025-11-11T06:00:02.000160",
    "MEAN_MOTION": 15.57349532,
    "ECCENTRICITY": 9.36e-05,
    "INCLINATION": 53.1593,
    "RA_OF_ASC_NODE": 236.378,
    "ARG_OF_PERICENTER": 94.5227,
    "MEAN_ANOMALY": 269.1603,
    "EPHEMERIS_TYPE": 0,
    "CLASSIFICATION_TYPE": "U",
    "NORAD_CAT_ID": 66114,
    "ELEMENT_SET_NO": 999,
    "REV_AT_EPOCH": 441,
    "BSTAR": 0.0,
    "MEAN_MOTION_DOT": -0.01944934,
    "MEAN_MOTION_DDOT": 0.0,
    "TLE_LINE1": "1 66114U 25237A   25315.25002315 -.01944934  00000+0 -29666-1 0  9996",
    "TLE_LINE2": "2 66114  53.1593 236.3780 0000936  94.5227 269.1603 15.57349532  4412",
    "COMMENT": "Grouped by shell and plane from TLE"
  },
  {
    "OBJECT_NAME": "STARLINK-35428",
    "OBJECT_ID": "25237B",
    "EPOCH": "2025-11-11T06:00:02.000160",
    "MEAN_MOTION": 15.57345124,
    "ECCENTRICITY": 8.94e-05,
    "INCLINATION": 53.1596,
    "RA_OF_ASC_NODE": 236.374,
    "ARG_OF_PERICENTER": 100.8186,
    "MEAN_ANOMALY": 264.7849,
    "EPHEMERIS_TYPE": 0,
    "CLASSIFICATION_TYPE": "U",
    "NORAD_CAT_ID": 66115,
    "ELEMENT_SET_NO": 999,
    "REV_AT_EPOCH": 441,
    "BSTAR": 0.0,
    "MEAN_MOTION_DOT": -0.01940915,
    "MEAN_MOTION_DDOT": 0.0,
    "TLE_LINE1": "1 66115U 25237B   25315.25002315 -.01940915  00000+0 -29602-1 0  9992",
    "TLE_LINE2": "2 66115  53.1596 236.3740 0000894 100.8186 264.7849 15.57345124  4416",
    "COMMENT": "Grouped by shell and plane from TLE"
  },
  {
    "OBJECT_NAME": "STARLINK-35573",
    "OBJECT_ID": "25237C",
    "EPOCH": "2025-11-11T06:00:02.000160",
    "MEAN_MOTION": 15.57350026,
    "ECCENTRICITY": 8.53e-05,
    "INCLINATION": 53.1594,
    "RA_OF_ASC_NODE": 236.3703,
    "ARG_OF_PERICENTER": 92.072,
    "MEAN_ANOMALY": 275.4475,
    "EPHEMERIS_TYPE": 0,
    "CLASSIFICATION_TYPE": "U",
    "NORAD_CAT_ID": 66116,
    "ELEMENT_SET_NO": 999,
    "REV_AT_EPOCH": 441,
    "BSTAR": 0.0,
    "MEAN_MOTION_DOT": -0.01949236,
    "MEAN_MOTION_DDOT": 0.0,
    "TLE_LINE1": "1 66116U 25237C   25315.25002315 -.01949236  00000+0 -29741-1 0  9992",
    "TLE_LINE2": "2 66116  53.1594 236.3703 0000853  92.0720 275.4475 15.57350026  4416",
    "COMMENT": "Grouped by shell and plane from TLE"
  },
  {
    "OBJECT_NAME": "STARLINK-35572",
    "OBJECT_ID": "25237D",
    "EPOCH": "2025-11-11T06:00:02.000160",
    "MEAN_MOTION": 15.57349998,
    "ECCENTRICITY": 9.16e-05,
    "INCLINATION": 53.1594,
    "RA_OF_ASC_NODE": 236.3625,
    "ARG_OF_PERICENTER": 93.8983,
    "MEAN_ANOMALY": 277.4537,
    "EPHEMERIS_TYPE": 0,
    "CLASSIFICATION_TYPE": "U",
    "NORAD_CAT_ID": 66117,
    "ELEMENT_SET_NO": 999,
    "REV_AT_EPOCH": 441,
    "BSTAR": 0.0,
    "MEAN_MOTION_DOT": -0.01948276,
    "MEAN_MOTION_DDOT": 0.0,
    "TLE_LINE1": "1 66117U 25237D   25315.25002315 -.01948276  00000+0 -29724-1 0  9997",
    "TLE_LINE2": "2 66117  53.1594 236.3625 0000916  93.8983 277.4537 15.57349998  4417",
    "COMMENT": "Grouped by shell and plane from TLE"
  },
  {
    "OBJECT_NAME": "STARLINK-35468",
    "OBJECT_ID": "25237E",
    "EPOCH": "2025-11-11T06:00:02.000160",
    "MEAN_MOTION": 15.57347543,
    "ECCENTRICITY": 9.26e-05,
    "INCLINATION": 53.1594,
    "RA_OF_ASC_NODE": 236.3663,
    "ARG_OF_PERICENTER": 94.2442,
    "MEAN_ANOMALY": 275.1921,
    "EPHEMERIS_TYPE": 0,
    "CLASSIFICATION_TYPE": "U",
    "NORAD_CAT_ID": 66118,
    "ELEMENT_SET_NO": 999,
    "REV_AT_EPOCH": 441,
    "BSTAR": 0.0,
    "MEAN_MOTION_DOT": -0.01944233,
    "MEAN_MOTION_DDOT": 0.0,
    "TLE_LINE1": "1 66118U 25237E   25315.25002315 -.01944233  00000+0 -29656-1 0  9991",
    "TLE_LINE2": "2 66118  53.1594 236.3663 0000926  94.2442 275.1921 15.57347543  4412",
    "COMMENT": "Grouped by shell and plane from TLE"
  },
  {
    "OBJECT_NAME": "STARLINK-35547",
    "OBJECT_ID": "25237F",
    "EPOCH": "2025-11-11T06:00:02.000160",
    "MEAN_MOTION": 15.57342633,
    "ECCENTRICITY": 8.65e-05,
    "INCLINATION": 53.1591,
    "RA_OF_ASC_NODE": 236.3497,
    "ARG_OF_PERICENTER": 97.5806,
    "MEAN_ANOMALY": 279.5215,
    "EPHEMERIS_TYPE": 0,
    "CLASSIFICATION_TYPE": "U",
    "NORAD_CAT_ID": 66119,
    "ELEMENT_SET_NO": 999,
    "REV_AT_EPOCH": 441,
    "BSTAR": 0.0,
    "MEAN_MOTION_DOT": -0.01931726,
    "MEAN_MOTION_DDOT": 0.0,
    "TLE_LINE1": "1 66119U 25237F   25315.25002315 -.01931726  00000+0 -29445-1 0  9991",
    "TLE_LINE2": "2 66119  53.1591 236.3497 0000865  97.5806 279.5215 15.57342633  4416",
    "COMMENT": "Grouped by shell and plane from TLE"
  },
  {
    "OBJECT_NAME": "STARLINK-35553",
    "OBJECT_ID": "25237G",
    "EPOCH": "2025-11-11T06:00:02.000160",
    "MEAN_MOTION": 15.57345238,
    "ECCENTRICITY": 9.12e-05,
    "INCLINATION": 53.1595,
    "RA_OF_ASC_NODE": 236.3582,
    "ARG_OF_PERICENTER": 95.8208,
    "MEAN_ANOMALY": 277.4485,
    "EPHEMERIS_TYPE": 0,
    "CLASSIFICATION_TYPE": "U",
    "NORAD_CAT_ID": 66120,
    "ELEMENT_SET_NO": 999,
    "REV_AT_EPOCH": 441,
    "BSTAR": 0.0,
    "MEAN_MOTION_DOT": -0.019376,
    "MEAN_MOTION_DDOT": 0.0,
    "TLE_LINE1": "1 66120U 25237G   25315.25002315 -.01937600  00000+0 -29544-1 0  9990",
    "TLE_LINE2": "2 66120  53.1595 236.3582 0000912  95.8208 277.4485 15.57345238  4417",
    "COMMENT": "Grouped by shell and plane from TLE"
  },
  {
    "OBJECT_NAME": "STARLINK-35631",
    "OBJECT_ID": "25237H",
    "EPOCH": "2025-11-11T06:00:02.000160",
    "MEAN_MOTION": 15.57347268,
    "ECCENTRICITY": 8.84e-05,
    "INCLINATION": 53.1594,
    "RA_OF_ASC_NODE": 236.3531,
    "ARG_OF_PERICENTER": 99.162,
    "MEAN_ANOMALY": 276.022,
    "EPHEMERIS_TYPE": 0,
    "CLASSIFICATION_TYPE": "U",
    "NORAD_CAT_ID": 66121,
    "ELEMENT_SET_NO": 999,
    "REV_AT_EPOCH": 441,
    "BSTAR": 0.0,
    "MEAN_MOTION_DOT": -0.01939077,
    "MEAN_MOTION_DDOT": 0.0,
    "TLE_LINE1": "1 66121U 25237H   25315.25002315 -.01939077  00000+0 -29567-1 0  9996",
    "TLE_LINE2": "2 66121  53.1594 236.3531 0000884  99.1620 276.0220 15.57347268  4411",
    "COMMENT": "Grouped by shell and plane from TLE"
  }
]